XRISM                   
1 57800U 23137A   24223.73912513  .00011580  00000+0  85787-3 0  9992
2 57800  31.0040  25.1925 0010001  28.9009 331.2180 15.01897634 50810
